{"type": "FeatureCollection", "features": [ {"type": "Feature", "properties": {"norad_id": 66517, "name": "STARLINK-35937", "group": "last-30-days", "lat": -5.325411005697955, "lon": -59.83636731344925, "alt_km": 344.72727806315925, "timestamp": "2025-12-02T13:52:16.065531+00:00", "meta": {"OBJECT_NAME": "STARLINK-35937", "OBJECT_ID": "2025-265B", "EPOCH": "2025-12-02T06:00:02.999808", "MEAN_MOTION": 15.75027228, "ECCENTRICITY": 0.00016153, "INCLINATION": 42.9994, "RA_OF_ASC_NODE": 116.4124, "ARG_OF_PERICENTER": 261.4956, "MEAN_ANOMALY": 224.5948, "EPHEMERIS_TYPE": 0, "CLASSIFICATION_TYPE": "U", "NORAD_CAT_ID": 66517, "ELEMENT_SET_NO": 999, "REV_AT_EPOCH": 330, "BSTAR": 2.770025e-06, "MEAN_MOTION_DOT": -5.2e-07, "MEAN_MOTION_DDOT": 0}, "tle": {"line1": "1 66517U 25265B   25336.25003472 -.00000052  00000+0  27700-5 0  9995", "line2": "2 66517  42.9994 116.4124 0001615 261.4956 224.5948 15.75027228  3308"}}, "geometry": {"type": "Point", "coordinates": [-59.83636731344925, -5.325411005697955]}}, {"type": "Feature", "properties": {"norad_id": 66518, "name": "STARLINK-35962", "group": "last-30-days", "lat": -6.629337876887568, "lon": -58.41763116223979, "alt_km": 344.7722717933202, "timestamp": "2025-12-02T13:52:16.065544+00:00", "meta": {"OBJECT_NAME": "STARLINK-35962", "OBJECT_ID": "2025-265C", "EPOCH": "2025-12-02T06:00:02.999808", "MEAN_MOTION": 15.75114171, "ECCENTRICITY": 0.00020496, "INCLINATION": 42.9991, "RA_OF_ASC_NODE": 116.4074, "ARG_OF_PERICENTER": 262.6057, "MEAN_ANOMALY": 225.3612, "EPHEMERIS_TYPE": 0, "CLASSIFICATION_TYPE": "U", "NORAD_CAT_ID": 66518, "ELEMENT_SET_NO": 999, "REV_AT_EPOCH": 330, "BSTAR": -0.00082347319, "MEAN_MOTION_DOT": -0.00125529, "MEAN_MOTION_DDOT": 0}, "tle": {"line1": "1 66518U 25265C   25336.25003472 -.00125529  00000+0 -82347-3 0  9990", "line2": "2 66518  42.9991 116.4074 0002049 262.6057 225.3612 15.75114171  3308"}}, "geometry": {"type": "Point", "coordinates": [-58.41763116223979, -6.629337876887568]}}, {"type": "Feature", "properties": {"norad_id": 66519, "name": "STARLINK-35931", "group": "last-30-days", "lat": -7.9167435896621585, "lon": -57.00510325764792, "alt_km": 344.8857662218488, "timestamp": "2025-12-02T13:52:16.065556+00:00", "meta": {"OBJECT_NAME": "STARLINK-35931", "OBJECT_ID": "2025-265D", "EPOCH": "2025-12-02T06:00:02.999808", "MEAN_MOTION": 15.75034996, "ECCENTRICITY": 0.00019044, "INCLINATION": 42.9994, "RA_OF_ASC_NODE": 116.4023, "ARG_OF_PERICENTER": 261.4042, "MEAN_ANOMALY": 228.5139, "EPHEMERIS_TYPE": 0, "CLASSIFICATION_TYPE": "U", "NORAD_CAT_ID": 66519, "ELEMENT_SET_NO": 999, "REV_AT_EPOCH": 330, "BSTAR": -3.2652242e-05, "MEAN_MOTION_DOT": -5.49e-05, "MEAN_MOTION_DDOT": 0}, "tle": {"line1": "1 66519U 25265D   25336.25003472 -.00005490  00000+0 -32652-4 0  9990", "line2": "2 66519  42.9994 116.4023 0001904 261.4042 228.5139 15.75034996  3301"}}, "geometry": {"type": "Point", "coordinates": [-57.00510325764792, -7.9167435896621585]}}, {"type": "Feature", "properties": {"norad_id": 66520, "name": "STARLINK-35952", "group": "last-30-days", "lat": -9.234631504250912, "lon": -55.54410765806263, "alt_km": 345.60823481364696, "timestamp": "2025-12-02T13:52:16.065566+00:00", "meta": {"OBJECT_NAME": "STARLINK-35952", "OBJECT_ID": "2025-265E", "EPOCH": "2025-12-02T06:00:02.999808", "MEAN_MOTION": 15.75150316, "ECCENTRICITY": 0.00014901, "INCLINATION": 42.9992, "RA_OF_ASC_NODE": 116.3974, "ARG_OF_PERICENTER": 283.9467, "MEAN_ANOMALY": 207.8882, "EPHEMERIS_TYPE": 0, "CLASSIFICATION_TYPE": "U", "NORAD_CAT_ID": 66520, "ELEMENT_SET_NO": 999, "REV_AT_EPOCH": 330, "BSTAR": -0.001659597, "MEAN_MOTION_DOT": -0.00249237, "MEAN_MOTION_DDOT": 0}, "tle": {"line1": "1 66520U 25265E   25336.25003472 -.00249237  00000+0 -16596-2 0  9998", "line2": "2 66520  42.9992 116.3974 0001490 283.9467 207.8882 15.75150316  3305"}}, "geometry": {"type": "Point", "coordinates": [-55.54410765806263, -9.234631504250912]}}, {"type": "Feature", "properties": {"norad_id": 66521, "name": "STARLINK-35915", "group": "last-30-days", "lat": -10.540317057096445, "lon": -54.079221032800824, "alt_km": 345.5931247172175, "timestamp": "2025-12-02T13:52:16.065578+00:00", "meta": {"OBJECT_NAME": "STARLINK-35915", "OBJECT_ID": "2025-265F", "EPOCH": "2025-12-02T06:00:02.999808", "MEAN_MOTION": 15.7516919, "ECCENTRICITY": 0.00015197, "INCLINATION": 42.9991, "RA_OF_ASC_NODE": 116.3924, "ARG_OF_PERICENTER": 277.1692, "MEAN_ANOMALY": 216.6059, "EPHEMERIS_TYPE": 0, "CLASSIFICATION_TYPE": "U", "NORAD_CAT_ID": 66521, "ELEMENT_SET_NO": 999, "REV_AT_EPOCH": 330, "BSTAR": -0.0018581885, "MEAN_MOTION_DOT": -0.0027829, "MEAN_MOTION_DDOT": 0}, "tle": {"line1": "1 66521U 25265F   25336.25003472 -.00278290  00000+0 -18582-2 0  9997", "line2": "2 66521  42.9991 116.3924 0001519 277.1692 216.6059 15.75169190  3301"}}, "geometry": {"type": "Point", "coordinates": [-54.079221032800824, -10.540317057096445]}}, {"type": "Feature", "properties": {"norad_id": 66522, "name": "STARLINK-35946", "group": "last-30-days", "lat": -11.769222132623261, "lon": -52.681854440486745, "alt_km": 345.36834774351973, "timestamp": "2025-12-02T13:52:16.065589+00:00", "meta": {"OBJECT_NAME": "STARLINK-35946", "OBJECT_ID": "2025-265G", "EPOCH": "2025-12-02T06:00:02.999808", "MEAN_MOTION": 15.75008937, "ECCENTRICITY": 0.00016585, "INCLINATION": 42.999, "RA_OF_ASC_NODE": 116.3876, "ARG_OF_PERICENTER": 269.3438, "MEAN_ANOMALY": 226.3351, "EPHEMERIS_TYPE": 0, "CLASSIFICATION_TYPE": "U", "NORAD_CAT_ID": 66522, "ELEMENT_SET_NO": 999, "REV_AT_EPOCH": 330, "BSTAR": 0.00034480811, "MEAN_MOTION_DOT": 0.0005275, "MEAN_MOTION_DDOT": 0}, "tle": {"line1": "1 66522U 25265G   25336.25003472  .00052750  00000+0  34481-3 0  9994", "line2": "2 66522  42.9990 116.3876 0001658 269.3438 226.3351 15.75008937  3306"}}, "geometry": {"type": "Point", "coordinates": [-52.681854440486745, -11.769222132623261]}}, {"type": "Feature", "properties": {"norad_id": 66523, "name": "STARLINK-35969", "group": "last-30-days", "lat": -13.040745878952746, "lon": -51.21455504820466, "alt_km": 345.51101397890307, "timestamp": "2025-12-02T13:52:16.065601+00:00", "meta": {"OBJECT_NAME": "STARLINK-35969", "OBJECT_ID": "2025-265H", "EPOCH": "2025-12-02T06:00:02.999808", "MEAN_MOTION": 15.75038305, "ECCENTRICITY": 0.00015442, "INCLINATION": 42.9994, "RA_OF_ASC_NODE": 116.3828, "ARG_OF_PERICENTER": 271.2176, "MEAN_ANOMALY": 226.3615, "EPHEMERIS_TYPE": 0, "CLASSIFICATION_TYPE": "U", "NORAD_CAT_ID": 66523, "ELEMENT_SET_NO": 999, "REV_AT_EPOCH": 330, "BSTAR": 7.5027488e-05, "MEAN_MOTION_DOT": 0.00011062, "MEAN_MOTION_DDOT": 0}, "tle": {"line1": "1 66523U 25265H   25336.25003472  .00011062  00000+0  75027-4 0  9998", "line2": "2 66523  42.9994 116.3828 0001544 271.2176 226.3615 15.75038305  3308"}}, "geometry": {"type": "Point", "coordinates": [-51.21455504820466, -13.040745878952746]}}, {"type": "Feature", "properties": {"norad_id": 66524, "name": "STARLINK-35687", "group": "last-30-days", "lat": -14.299053235333911, "lon": -49.737819051338235, "alt_km": 345.5309543034127, "timestamp": "2025-12-02T13:52:16.065611+00:00", "meta": {"OBJECT_NAME": "STARLINK-35687", "OBJECT_ID": "2025-265J", "EPOCH": "2025-12-02T06:00:02.999808", "MEAN_MOTION": 15.75027134, "ECCENTRICITY": 0.00017468, "INCLINATION": 42.9993, "RA_OF_ASC_NODE": 116.3777, "ARG_OF_PERICENTER": 268.9815, "MEAN_ANOMALY": 230.5211, "EPHEMERIS_TYPE": 0, "CLASSIFICATION_TYPE": "U", "NORAD_CAT_ID": 66524, "ELEMENT_SET_NO": 999, "REV_AT_EPOCH": 330, "BSTAR": 0.00015039529, "MEAN_MOTION_DOT": 0.00022675, "MEAN_MOTION_DDOT": 0}, "tle": {"line1": "1 66524U 25265J   25336.25003472  .00022675  00000+0  15040-3 0  9999", "line2": "2 66524  42.9993 116.3777 0001746 268.9815 230.5211 15.75027134  3305"}}, "geometry": {"type": "Point", "coordinates": [-49.737819051338235, -14.299053235333911]}}, {"type": "Feature", "properties": {"norad_id": 66525, "name": "STARLINK-35975", "group": "last-30-days", "lat": -15.55304747047865, "lon": -48.237822027107505, "alt_km": 345.52199337900674, "timestamp": "2025-12-02T13:52:16.065621+00:00", "meta": {"OBJECT_NAME": "STARLINK-35975", "OBJECT_ID": "2025-265K", "EPOCH": "2025-12-02T06:00:02.999808", "MEAN_MOTION": 15.75032258, "ECCENTRICITY": 0.00015922, "INCLINATION": 42.9993, "RA_OF_ASC_NODE": 116.3733, "ARG_OF_PERICENTER": 260.236, "MEAN_ANOMALY": 241.1841, "EPHEMERIS_TYPE": 0, "CLASSIFICATION_TYPE": "U", "NORAD_CAT_ID": 66525, "ELEMENT_SET_NO": 999, "REV_AT_EPOCH": 330, "BSTAR": 5.0433764e-05, "MEAN_MOTION_DOT": 7.274e-05, "MEAN_MOTION_DDOT": 0}, "tle": {"line1": "1 66525U 25265K   25336.25003472  .00007274  00000+0  50434-4 0  9995", "line2": "2 66525  42.9993 116.3733 0001592 260.2360 241.1841 15.75032258  3307"}}, "geometry": {"type": "Point", "coordinates": [-48.237822027107505, -15.55304747047865]}}, {"type": "Feature", "properties": {"norad_id": 66526, "name": "STARLINK-35932", "group": "last-30-days", "lat": -16.78903055489223, "lon": -46.72934030935558, "alt_km": 345.66083571036415, "timestamp": "2025-12-02T13:52:16.065635+00:00", "meta": {"OBJECT_NAME": "STARLINK-35932", "OBJECT_ID": "2025-265L", "EPOCH": "2025-12-02T06:00:02.999808", "MEAN_MOTION": 15.75011447, "ECCENTRICITY": 0.0001682, "INCLINATION": 42.9993, "RA_OF_ASC_NODE": 116.3685, "ARG_OF_PERICENTER": 265.2033, "MEAN_ANOMALY": 238.1387, "EPHEMERIS_TYPE": 0, "CLASSIFICATION_TYPE": "U", "NORAD_CAT_ID": 66526, "ELEMENT_SET_NO": 999, "REV_AT_EPOCH": 320, "BSTAR": 0.00026821062, "MEAN_MOTION_DOT": 0.00040872, "MEAN_MOTION_DDOT": 0}, "tle": {"line1": "1 66526U 25265L   25336.25003472  .00040872  00000+0  26821-3 0  9999", "line2": "2 66526  42.9993 116.3685 0001682 265.2033 238.1387 15.75011447  3203"}}, "geometry": {"type": "Point", "coordinates": [-46.72934030935558, -16.78903055489223]}}]}